{
    "links": {
        "next": "https://api.nasa.gov/neo/rest/v1/feed?start_date=2017-08-02&end_date=2017-08-02&detailed=true&api_key=S3PmfcdtXaoYuUfgeotZnnBPIM0aR73Tvc8h6Ae9",
        "prev": "https://api.nasa.gov/neo/rest/v1/feed?start_date=2017-07-31&end_date=2017-07-31&detailed=true&api_key=S3PmfcdtXaoYuUfgeotZnnBPIM0aR73Tvc8h6Ae9",
        "self": "https://api.nasa.gov/neo/rest/v1/feed?start_date=2017-08-01&end_date=2017-08-01&detailed=true&api_key=S3PmfcdtXaoYuUfgeotZnnBPIM0aR73Tvc8h6Ae9"
    },
    "element_count": 8,
    "near_earth_objects": {
        "2017-08-01": [{
            "links": {
                "self": "https://api.nasa.gov/neo/rest/v1/neo/2138925?api_key=S3PmfcdtXaoYuUfgeotZnnBPIM0aR73Tvc8h6Ae9"
            },
            "neo_reference_id": "2138925",
            "name": "138925 (2001 AU43)",
            "nasa_jpl_url": "http://ssd.jpl.nasa.gov/sbdb.cgi?sstr=2138925",
            "absolute_magnitude_h": 15.9,
            "estimated_diameter": {
                "kilometers": {
                    "estimated_diameter_min": 1.7561231848,
                    "estimated_diameter_max": 3.9268108181
                },
                "meters": {
                    "estimated_diameter_min": 1756.1231848042,
                    "estimated_diameter_max": 3926.8108180856
                },
                "miles": {
                    "estimated_diameter_min": 1.0912040195,
                    "estimated_diameter_max": 2.4400063648
                },
                "feet": {
                    "estimated_diameter_min": 5761.559189633,
                    "estimated_diameter_max": 12883.2380044079
                }
            },
            "is_potentially_hazardous_asteroid": false,
            "close_approach_data": [{
                "close_approach_date": "2017-08-01",
                "epoch_date_close_approach": 1501570800000,
                "relative_velocity": {
                    "kilometers_per_second": "35.8976399011",
                    "kilometers_per_hour": "129231.5036441306",
                    "miles_per_hour": "80299.4306948766"
                },
                "miss_distance": {
                    "astronomical": "0.211790652",
                    "lunar": "82.3865661621",
                    "kilometers": "31683430",
                    "miles": "19687172"
                },
                "orbiting_body": "Earth"
            }],
            "orbital_data": {
                "orbit_id": "113",
                "orbit_determination_date": "2017-08-02 06:21:09",
                "orbit_uncertainty": "0",
                "minimum_orbit_intersection": ".211635",
                "jupiter_tisserand_invariant": "3.086",
                "epoch_osculation": "2458000.5",
                "eccentricity": ".376751666578081",
                "semi_major_axis": "1.896712228791763",
                "inclination": "72.14643239230155",
                "ascending_node_longitude": "129.3135558676834",
                "orbital_period": "954.1147136428845",
                "perihelion_distance": "1.18212273557544",
                "perihelion_argument": "149.2734489733459",
                "aphelion_distance": "2.611301722008086",
                "perihelion_time": "2457934.247742551091",
                "mean_anomaly": "24.99784600380293",
                "mean_motion": ".3773131205843078",
                "equinox": "J2000"
            }
        }, {
            "links": {
                "self": "https://api.nasa.gov/neo/rest/v1/neo/2232368?api_key=S3PmfcdtXaoYuUfgeotZnnBPIM0aR73Tvc8h6Ae9"
            },
            "neo_reference_id": "2232368",
            "name": "232368 (2003 AZ2)",
            "nasa_jpl_url": "http://ssd.jpl.nasa.gov/sbdb.cgi?sstr=2232368",
            "absolute_magnitude_h": 18.2,
            "estimated_diameter": {
                "kilometers": {
                    "estimated_diameter_min": 0.6089126221,
                    "estimated_diameter_max": 1.3615700154
                },
                "meters": {
                    "estimated_diameter_min": 608.9126221057,
                    "estimated_diameter_max": 1361.5700153859
                },
                "miles": {
                    "estimated_diameter_min": 0.3783606449,
                    "estimated_diameter_max": 0.846040122
                },
                "feet": {
                    "estimated_diameter_min": 1997.7448871092,
                    "estimated_diameter_max": 4467.0933692788
                }
            },
            "is_potentially_hazardous_asteroid": false,
            "close_approach_data": [{
                "close_approach_date": "2017-08-01",
                "epoch_date_close_approach": 1501570800000,
                "relative_velocity": {
                    "kilometers_per_second": "12.7373995589",
                    "kilometers_per_hour": "45854.6384120342",
                    "miles_per_hour": "28492.2890732998"
                },
                "miss_distance": {
                    "astronomical": "0.1546060834",
                    "lunar": "60.1417694092",
                    "kilometers": "23128742",
                    "miles": "14371534"
                },
                "orbiting_body": "Earth"
            }],
            "orbital_data": {
                "orbit_id": "97",
                "orbit_determination_date": "2017-07-30 06:19:02",
                "orbit_uncertainty": "0",
                "minimum_orbit_intersection": ".0891116",
                "jupiter_tisserand_invariant": "4.604",
                "epoch_osculation": "2458000.5",
                "eccentricity": ".2235135887745514",
                "semi_major_axis": "1.419524986535812",
                "inclination": "22.86610106087576",
                "ascending_node_longitude": "131.6255574192431",
                "orbital_period": "617.7503341168789",
                "perihelion_distance": "1.102241862440046",
                "perihelion_argument": "186.9140011613562",
                "aphelion_distance": "1.736808110631578",
                "perihelion_time": "2457969.454336791935",
                "mean_anomaly": "18.09216140834782",
                "mean_motion": ".5827597009957872",
                "equinox": "J2000"
            }
        }, {
            "links": {
                "self": "https://api.nasa.gov/neo/rest/v1/neo/3071770?api_key=S3PmfcdtXaoYuUfgeotZnnBPIM0aR73Tvc8h6Ae9"
            },
            "neo_reference_id": "3071770",
            "name": "(2001 FE90)",
            "nasa_jpl_url": "http://ssd.jpl.nasa.gov/sbdb.cgi?sstr=3071770",
            "absolute_magnitude_h": 20.6,
            "estimated_diameter": {
                "kilometers": {
                    "estimated_diameter_min": 0.2016299194,
                    "estimated_diameter_max": 0.4508582062
                },
                "meters": {
                    "estimated_diameter_min": 201.6299194428,
                    "estimated_diameter_max": 450.8582061718
                },
                "miles": {
                    "estimated_diameter_min": 0.1252869847,
                    "estimated_diameter_max": 0.2801502144
                },
                "feet": {
                    "estimated_diameter_min": 661.5155049046,
                    "estimated_diameter_max": 1479.1936371367
                }
            },
            "is_potentially_hazardous_asteroid": true,
            "close_approach_data": [{
                "close_approach_date": "2017-08-01",
                "epoch_date_close_approach": 1501570800000,
                "relative_velocity": {
                    "kilometers_per_second": "22.0896686913",
                    "kilometers_per_hour": "79522.8072885054",
                    "miles_per_hour": "49412.3798954605"
                },
                "miss_distance": {
                    "astronomical": "0.4463263719",
                    "lunar": "173.6209564209",
                    "kilometers": "66769476",
                    "miles": "41488628"
                },
                "orbiting_body": "Earth"
            }],
            "orbital_data": {
                "orbit_id": "56",
                "orbit_determination_date": "2017-04-06 09:16:27",
                "orbit_uncertainty": "0",
                "minimum_orbit_intersection": ".0148114",
                "jupiter_tisserand_invariant": "3.737",
                "epoch_osculation": "2457800.5",
                "eccentricity": ".4945574325021827",
                "semi_major_axis": "1.934618873651419",
                "inclination": "8.791581607463291",
                "ascending_node_longitude": "98.54825092290827",
                "orbital_period": "982.8597661154341",
                "perihelion_distance": ".9778387306281087",
                "perihelion_argument": "145.0745541246582",
                "aphelion_distance": "2.891399016674729",
                "perihelion_time": "2457932.128860354726",
                "mean_anomaly": "311.7872321552167",
                "mean_motion": ".3662780921665268",
                "equinox": "J2000"
            }
        }]
    }
}
